GSAT0206 (GALILEO 10)   
1 40890U 15045B   26061.69895769  .00000010  00000+0  00000+0 0  9999
2 40890  54.9811 224.5416 0003832  50.0037 309.9714  1.70473640 65226
NAVSTAR 75 (USA 265)    
1 41019U 15062A   26062.08043406 -.00000074  00000+0  00000+0 0  9990
2 41019  56.8920  34.8990 0111459 231.4865 127.4993  2.00567044 75702
GSAT-15                 
1 41028U 15065A   26062.96154330 -.00000270  00000+0  00000+0 0  9997
2 41028   0.0907 270.0483 0000863  92.3270 238.9690  1.00269996 37747
GSAT0209 (GALILEO 12)   
1 41174U 15079A   26061.86713421  .00000015  00000+0  00000+0 0  9990
2 41174  55.7583 104.1775 0004785 323.3337  36.7202  1.70474497 62961
GSAT0208 (GALILEO 11)   
1 41175U 15079B   26062.08735472  .00000015  00000+0  00000+0 0  9996
2 41175  55.7569 104.1685 0004163 323.7694  36.2890  1.70474318 63383
IRNSS-1E                
1 41241U 16003A   26062.89409247 -.00000293  00000+0  00000+0 0  9994
2 41241  33.0059  61.2659 0017751 189.2049 344.8575  1.00274986 37022
NAVSTAR 76 (USA 266)    
1 41328U 16007A   26062.66434739  .00000016  00000+0  00000+0 0  9995
2 41328  55.4551  93.6421 0095415 245.9853 113.0821  2.00556778 73725
COSMOS 2514 [GLONASS-M] 
1 41330U 16008A   26062.70171478 -.00000048  00000+0  00000+0 0  9998
2 41330  65.0830 316.6293 0009149 209.5647 150.4441  2.13102533 78375
IRNSS-1F                
1 41384U 16015A   26062.80677523  .00000146  00000+0  00000+0 0  9996
2 41384   5.0828  99.2860 0019194 187.9817 197.1440  1.00270927 36614
BEIDOU-2 IGSO-6         
1 41434U 16021A   26062.89079911 -.00000149  00000+0  00000+0 0  9999
2 41434  60.0859  39.0829 0059817 233.4373 305.5340  1.00278539 36422
IRNSS-1G                
1 41469U 16027A   26062.96873667 -.00000346  00000+0  00000+0 0  9990
2 41469   4.9340 100.0247 0005277 313.9299 226.0550  1.00268902 36127
GSAT0211 (GALILEO 14)   
1 41549U 16030A   26061.62472216  .00000011  00000+0  00000+0 0  9998
2 41549  55.1322 224.6224 0003631  25.7212 334.2388  1.70473766 60858
GSAT0210 (GALILEO 13)   
1 41550U 16030B   26061.29541970  .00000012  00000+0  00000+0 0  9998
2 41550  55.1304 224.6297 0001173 192.8511 167.0898  1.70473885 60846
BEIDOU-2 G7             
1 41586U 16037A   26062.96492332 -.00000365  00000+0  00000+0 0  9998
2 41586   1.4606  68.1966 0007531 341.8195 209.5827  1.00267581  5835
EUTELSAT 117 WEST B     
1 41589U 16038B   26062.49199334 -.00000026  00000+0  00000+0 0  9990
2 41589   0.0336  12.5223 0000104 202.0332   6.8113  1.00271412 35604
GSAT0207 (GALILEO 15)   
1 41859U 16069A   26059.22748061  .00000008  00000+0  00000+0 0  9997
2 41859  55.4267 104.1007 0005031 309.1503  50.8842  1.70474383 57546
GSAT0212 (GALILEO 16)   
1 41860U 16069B   26062.01395955  .00000014  00000+0  00000+0 0  9997
2 41860  55.4261 104.0186 0003622 335.7588  24.3106  1.70474657 57847
